{
  "type": "FeatureCollection",
  "features": [
    {
      "type": "Feature",
      "properties": {
        "norad_id": 40115,
        "name": "WORLDVIEW-3 (WV-3)",
        "group": "resource",
        "lat": -43.33233230280046,
        "lon": -137.6407309747298,
        "alt_km": 615.9499677820886,
        "timestamp": "2025-12-03T10:52:57.106922+00:00",
        "meta_object_name": "WORLDVIEW-3 (WV-3)",
        "meta_object_id": "2014-048A",
        "meta_epoch": "2025-12-03T03:24:41.767776",
        "meta_mean_motion": 14.85471259,
        "meta_eccentricity": 0.0004077,
        "meta_inclination": 97.8626,
        "meta_ra_of_asc_node": 49.5429,
        "meta_arg_of_pericenter": 219.4958,
        "meta_mean_anomaly": 140.596,
        "meta_ephemeris_type": 0,
        "meta_classification_type": "U",
        "meta_norad_cat_id": 40115,
        "meta_element_set_no": 999,
        "meta_rev_at_epoch": 61281,
        "meta_bstar": 0.00019419,
        "meta_mean_motion_dot": 1.622e-05,
        "meta_mean_motion_ddot": 0,
        "tle_line1": "1 40115U 14048A   25337.14215009  .00001622  00000+0  19419-3 0  9997",
        "tle_line2": "2 40115  97.8626  49.5429 0004077 219.4958 140.5960 14.85471259612819"
      },
      "geometry": {
        "type": "Point",
        "coordinates": [
          -137.6407309747298,
          -43.33233230280046
        ]
      }
    },
    {
      "type": "Feature",
      "properties": {
        "norad_id": 40118,
        "name": "GAOFEN-2",
        "group": "resource",
        "lat": -24.44763684514535,
        "lon": -147.0789743706773,
        "alt_km": 630.6356894953233,
        "timestamp": "2025-12-03T10:52:57.106933+00:00",
        "meta_object_name": "GAOFEN-2",
        "meta_object_id": "2014-049A",
        "meta_epoch": "2025-12-03T05:05:45.724992",
        "meta_mean_motion": 14.80580389,
        "meta_eccentricity": 0.000819,
        "meta_inclination": 98.0399,
        "meta_ra_of_asc_node": 36.3638,
        "meta_arg_of_pericenter": 140.4114,
        "meta_mean_anomaly": 219.7697,
        "meta_ephemeris_type": 0,
        "meta_classification_type": "U",
        "meta_norad_cat_id": 40118,
        "meta_element_set_no": 999,
        "meta_rev_at_epoch": 61023,
        "meta_bstar": 0.0001452,
        "meta_mean_motion_dot": 1.06e-05,
        "meta_mean_motion_ddot": 0,
        "tle_line1": "1 40118U 14049A   25337.21233478  .00001060  00000+0  14520-3 0  9993",
        "tle_line2": "2 40118  98.0399  36.3638 0008190 140.4114 219.7697 14.80580389610235"
      },
      "geometry": {
        "type": "Point",
        "coordinates": [
          -147.0789743706773,
          -24.44763684514535
        ]
      }
    },
    {
      "type": "Feature",
      "properties": {
        "norad_id": 40143,
        "name": "YAOGAN-21",
        "group": "resource",
        "lat": 6.343084248538906,
        "lon": -158.02624146795188,
        "alt_km": 499.2166439666016,
        "timestamp": "2025-12-03T10:52:57.106944+00:00",
        "meta_object_name": "YAOGAN-21",
        "meta_object_id": "2014-053A",
        "meta_epoch": "2025-12-03T05:23:43.298016",
        "meta_mean_motion": 15.23484398,
        "meta_eccentricity": 0.0010236,
        "meta_inclination": 97.1775,
        "meta_ra_of_asc_node": 20.9524,
        "meta_arg_of_pericenter": 70.6252,
        "meta_mean_anomaly": 289.6092,
        "meta_ephemeris_type": 0,
        "meta_classification_type": "U",
        "meta_norad_cat_id": 40143,
        "meta_element_set_no": 999,
        "meta_rev_at_epoch": 62509,
        "meta_bstar": 0.00048163,
        "meta_mean_motion_dot": 0.00011445,
        "meta_mean_motion_ddot": 0,
        "tle_line1": "1 40143U 14053A   25337.22480669  .00011445  00000+0  48163-3 0  9991",
        "tle_line2": "2 40143  97.1775  20.9524 0010236  70.6252 289.6092 15.23484398625091"
      },
      "geometry": {
        "type": "Point",
        "coordinates": [
          -158.02624146795188,
          6.343084248538906
        ]
      }
    },
    {
      "type": "Feature",
      "properties": {
        "norad_id": 40275,
        "name": "YAOGAN-22",
        "group": "resource",
        "lat": 65.33556968489148,
        "lon": -34.8415999077591,
        "alt_km": 1199.5189247714634,
        "timestamp": "2025-12-03T10:52:57.106955+00:00",
        "meta_object_name": "YAOGAN-22",
        "meta_object_id": "2014-063A",
        "meta_epoch": "2025-12-03T03:00:44.400096",
        "meta_mean_motion": 13.15522268,
        "meta_eccentricity": 0.0005874,
        "meta_inclination": 100.7418,
        "meta_ra_of_asc_node": 120.4095,
        "meta_arg_of_pericenter": 271.4284,
        "meta_mean_anomaly": 88.6154,
        "meta_ephemeris_type": 0,
        "meta_classification_type": "U",
        "meta_norad_cat_id": 40275,
        "meta_element_set_no": 999,
        "meta_rev_at_epoch": 53403,
        "meta_bstar": 0.00015883,
        "meta_mean_motion_dot": 1.3e-07,
        "meta_mean_motion_ddot": 0,
        "tle_line1": "1 40275U 14063A   25337.12551389  .00000013  00000+0  15883-3 0  9997",
        "tle_line2": "2 40275 100.7418 120.4095 0005874 271.4284  88.6154 13.15522268534036"
      },
      "geometry": {
        "type": "Point",
        "coordinates": [
          -34.8415999077591,
          65.33556968489148
        ]
      }
    },
    {
      "type": "Feature",
      "properties": {
        "norad_id": 40298,
        "name": "ASNARO",
        "group": "resource",
        "lat": 2.642165049475823,
        "lon": 53.28732697570314,
        "alt_km": 513.9820871773163,
        "timestamp": "2025-12-03T10:52:57.106965+00:00",
        "meta_object_name": "ASNARO",
        "meta_object_id": "2014-070A",
        "meta_epoch": "2025-12-03T04:32:51.190368",
        "meta_mean_motion": 15.19169507,
        "meta_eccentricity": 0.0005117,
        "meta_inclination": 97.367,
        "meta_ra_of_asc_node": 53.372,
        "meta_arg_of_pericenter": 149.5378,
        "meta_mean_anomaly": 210.6155,
        "meta_ephemeris_type": 0,
        "meta_classification_type": "U",
        "meta_norad_cat_id": 40298,
        "meta_element_set_no": 999,
        "meta_rev_at_epoch": 61424,
        "meta_bstar": 0.00066584,
        "meta_mean_motion_dot": 0.00013954,
        "meta_mean_motion_ddot": 0,
        "tle_line1": "1 40298U 14070A   25337.18948137  .00013954  00000+0  66584-3 0  9999",
        "tle_line2": "2 40298  97.3670  53.3720 0005117 149.5378 210.6155 15.19169507614249"
      },
      "geometry": {
        "type": "Point",
        "coordinates": [
          53.28732697570314,
          2.642165049475823
        ]
      }
    },
    {
      "type": "Feature",
      "properties": {
        "norad_id": 40310,
        "name": "YAOGAN-24",
        "group": "resource",
        "lat": -23.65103391638937,
        "lon": 112.08329330504742,
        "alt_km": 656.8557558863095,
        "timestamp": "2025-12-03T10:52:57.106975+00:00",
        "meta_object_name": "YAOGAN-24",
        "meta_object_id": "2014-072A",
        "meta_epoch": "2025-12-03T04:29:00.678624",
        "meta_mean_motion": 14.76143069,
        "meta_eccentricity": 0.0014238,
        "meta_inclination": 98.1217,
        "meta_ra_of_asc_node": 108.2297,
        "meta_arg_of_pericenter": 167.6619,
        "meta_mean_anomaly": 192.4941,
        "meta_ephemeris_type": 0,
        "meta_classification_type": "U",
        "meta_norad_cat_id": 40310,
        "meta_element_set_no": 999,
        "meta_rev_at_epoch": 59480,
        "meta_bstar": 0.00020649,
        "meta_mean_motion_dot": 1.376e-05,
        "meta_mean_motion_ddot": 0,
        "tle_line1": "1 40310U 14072A   25337.18681341  .00001376  00000+0  20649-3 0  9994",
        "tle_line2": "2 40310  98.1217 108.2297 0014238 167.6619 192.4941 14.76143069594808"
      },
      "geometry": {
        "type": "Point",
        "coordinates": [
          112.08329330504742,
          -23.65103391638937
        ]
      }
    },
    {
      "type": "Feature",
      "properties": {
        "norad_id": 40336,
        "name": "CBERS 4",
        "group": "resource",
        "lat": -6.594186663090022,
        "lon": 36.7582882130279,
        "alt_km": 777.7815457225734,
        "timestamp": "2025-12-03T10:52:57.106986+00:00",
        "meta_object_name": "CBERS 4",
        "meta_object_id": "2014-079A",
        "meta_epoch": "2025-12-03T04:13:19.920864",
        "meta_mean_motion": 14.35527941,
        "meta_eccentricity": 0.0001446,
        "meta_inclination": 98.3323,
        "meta_ra_of_asc_node": 35.5195,
        "meta_arg_of_pericenter": 127.1305,
        "meta_mean_anomaly": 233.0013,
        "meta_ephemeris_type": 0,
        "meta_classification_type": "U",
        "meta_norad_cat_id": 40336,
        "meta_element_set_no": 999,
        "meta_rev_at_epoch": 57583,
        "meta_bstar": 9.2988e-05,
        "meta_mean_motion_dot": 2.26e-06,
        "meta_mean_motion_ddot": 0,
        "tle_line1": "1 40336U 14079A   25337.17592501  .00000226  00000+0  92988-4 0  9996",
        "tle_line2": "2 40336  98.3323  35.5195 0001446 127.1305 233.0013 14.35527941575839"
      },
      "geometry": {
        "type": "Point",
        "coordinates": [
          36.7582882130279,
          -6.594186663090022
        ]
      }
    }
  ]
}